[{"OBJECT_NAME":"KINEIS-1A","OBJECT_ID":"2024-114F","EPOCH":"2026-03-09T23:45:50.090112","MEAN_MOTION":14.80439392,"ECCENTRICITY":0.00048167,"INCLINATION":97.9936,"RA_OF_ASC_NODE":93.6517,"ARG_OF_PERICENTER":91.725,"MEAN_ANOMALY":268.4514,"EPHEMERIS_TYPE":0,"CLASSIFICATION_TYPE":"U","NORAD_CAT_ID":60084,"ELEMENT_SET_NO":999,"REV_AT_EPOCH":9271,"BSTAR":0.00016296213,"MEAN_MOTION_DOT":1.193e-5,"MEAN_MOTION_DDOT":0},{"OBJECT_NAME":"KUIPER-00091","OBJECT_ID":"2025-151W","EPOCH":"2026-03-09T21:08:44.948256","MEAN_MOTION":14.79868428,"ECCENTRICITY":0.00010582,"INCLINATION":51.9005,"RA_OF_ASC_NODE":282.2615,"ARG_OF_PERICENTER":116.1118,"MEAN_ANOMALY":243.9954,"EPHEMERIS_TYPE":0,"CLASSIFICATION_TYPE":"U","NORAD_CAT_ID":64836,"ELEMENT_SET_NO":999,"REV_AT_EPOCH":3557,"BSTAR":0.00055851015,"MEAN_MOTION_DOT":4.033e-5,"MEAN_MOTION_DDOT":0}]
